{
  "type": "FeatureCollection",
  "features": [
    {
      "type": "Feature",
      "properties": {
        "norad_id": 22490,
        "name": "SCD 1",
        "group": "resource",
        "lat": -17.40556582659022,
        "lon": 159.63728376755967,
        "alt_km": 762.0966512363939,
        "timestamp": "2025-12-25T03:55:55.962565+00:00",
        "meta_object_name": "SCD 1",
        "meta_object_id": "1993-009B",
        "meta_epoch": "2025-12-24T16:48:10.228032",
        "meta_mean_motion": 14.46006587,
        "meta_eccentricity": 0.004218,
        "meta_inclination": 24.9676,
        "meta_ra_of_asc_node": 204.8525,
        "meta_arg_of_pericenter": 91.3643,
        "meta_mean_anomaly": 324.9394,
        "meta_ephemeris_type": 0,
        "meta_classification_type": "U",
        "meta_norad_cat_id": 22490,
        "meta_element_set_no": 999,
        "meta_rev_at_epoch": 73583,
        "meta_bstar": 7.822e-05,
        "meta_mean_motion_dot": 4.71e-06,
        "meta_mean_motion_ddot": 0,
        "tle_line1": "1 22490U 93009B   25358.70011838  .00000471  00000+0  78220-4 0  9993",
        "tle_line2": "2 22490  24.9676 204.8525 0042180  91.3643 324.9394 14.46006587735831"
      },
      "geometry": {
        "type": "Point",
        "coordinates": [
          159.63728376755967,
          -17.40556582659022
        ]
      }
    },
    {
      "type": "Feature",
      "properties": {
        "norad_id": 25397,
        "name": "TECHSAT 1B (GO-32)",
        "group": "resource",
        "lat": 57.56589000828849,
        "lon": 177.09424216486622,
        "alt_km": 804.8850512694153,
        "timestamp": "2025-12-25T03:55:55.962599+00:00",
        "meta_object_name": "TECHSAT 1B (GO-32)",
        "meta_object_id": "1998-043D",
        "meta_epoch": "2025-12-24T20:37:17.747616",
        "meta_mean_motion": 14.24380271,
        "meta_eccentricity": 0.0001668,
        "meta_inclination": 98.9932,
        "meta_ra_of_asc_node": 342.3516,
        "meta_arg_of_pericenter": 37.3772,
        "meta_mean_anomaly": 322.7522,
        "meta_ephemeris_type": 0,
        "meta_classification_type": "U",
        "meta_norad_cat_id": 25397,
        "meta_element_set_no": 999,
        "meta_rev_at_epoch": 42651,
        "meta_bstar": 5.2942e-05,
        "meta_mean_motion_dot": 7.6e-07,
        "meta_mean_motion_ddot": 0,
        "tle_line1": "1 25397U 98043D   25358.85923319  .00000076  00000+0  52942-4 0  9991",
        "tle_line2": "2 25397  98.9932 342.3516 0001668  37.3772 322.7522 14.24380271426515"
      },
      "geometry": {
        "type": "Point",
        "coordinates": [
          177.09424216486622,
          57.56589000828849
        ]
      }
    },
    {
      "type": "Feature",
      "properties": {
        "norad_id": 25504,
        "name": "SCD 2",
        "group": "resource",
        "lat": -15.393190951346714,
        "lon": 29.066520642722768,
        "alt_km": 747.0483333110151,
        "timestamp": "2025-12-25T03:55:55.962616+00:00",
        "meta_object_name": "SCD 2",
        "meta_object_id": "1998-060A",
        "meta_epoch": "2025-12-24T13:48:55.433376",
        "meta_mean_motion": 14.45429519,
        "meta_eccentricity": 0.0017063,
        "meta_inclination": 24.9954,
        "meta_ra_of_asc_node": 68.9145,
        "meta_arg_of_pericenter": 78.1649,
        "meta_mean_anomaly": 56.1547,
        "meta_ephemeris_type": 0,
        "meta_classification_type": "U",
        "meta_norad_cat_id": 25504,
        "meta_element_set_no": 999,
        "meta_rev_at_epoch": 43503,
        "meta_bstar": 7.2332e-05,
        "meta_mean_motion_dot": 4.41e-06,
        "meta_mean_motion_ddot": 0,
        "tle_line1": "1 25504U 98060A   25358.57564159  .00000441  00000+0  72332-4 0  9993",
        "tle_line2": "2 25504  24.9954  68.9145 0017063  78.1649  56.1547 14.45429519435033"
      },
      "geometry": {
        "type": "Point",
        "coordinates": [
          29.066520642722768,
          -15.393190951346714
        ]
      }
    },
    {
      "type": "Feature",
      "properties": {
        "norad_id": 25757,
        "name": "DLR-TUBSAT",
        "group": "resource",
        "lat": 30.530695997809318,
        "lon": 169.21584428820088,
        "alt_km": 706.2789552267122,
        "timestamp": "2025-12-25T03:55:55.962631+00:00",
        "meta_object_name": "DLR-TUBSAT",
        "meta_object_id": "1999-029B",
        "meta_epoch": "2025-12-17T13:22:10.787520",
        "meta_mean_motion": 14.52359578,
        "meta_eccentricity": 0.00141996,
        "meta_inclination": 98.6566,
        "meta_ra_of_asc_node": 336.2196,
        "meta_arg_of_pericenter": 177.8976,
        "meta_mean_anomaly": 182.2281,
        "meta_ephemeris_type": 0,
        "meta_classification_type": "U",
        "meta_norad_cat_id": 25757,
        "meta_element_set_no": 999,
        "meta_rev_at_epoch": 40688,
        "meta_bstar": 3.7650132e-05,
        "meta_mean_motion_dot": 1.05e-06,
        "meta_mean_motion_ddot": 0,
        "tle_line1": "1 25757U 99029B   25351.55706930  .00000105  00000+0  37650-4 0  9996",
        "tle_line2": "2 25757  98.6566 336.2196 0014199 177.8976 182.2281 14.52359578406886"
      },
      "geometry": {
        "type": "Point",
        "coordinates": [
          169.21584428820088,
          30.530695997809318
        ]
      }
    },
    {
      "type": "Feature",
      "properties": {
        "norad_id": 25994,
        "name": "TERRA",
        "group": "resource",
        "lat": -52.656352562219446,
        "lon": -140.19353273272625,
        "alt_km": 699.5321077244507,
        "timestamp": "2025-12-25T03:55:55.962644+00:00",
        "meta_object_name": "TERRA",
        "meta_object_id": "1999-068A",
        "meta_epoch": "2025-12-24T19:04:13.482336",
        "meta_mean_motion": 14.60914783,
        "meta_eccentricity": 0.0003436,
        "meta_inclination": 97.9732,
        "meta_ra_of_asc_node": 50.0357,
        "meta_arg_of_pericenter": 70.5699,
        "meta_mean_anomaly": 21.9478,
        "meta_ephemeris_type": 0,
        "meta_classification_type": "U",
        "meta_norad_cat_id": 25994,
        "meta_element_set_no": 999,
        "meta_rev_at_epoch": 38414,
        "meta_bstar": 0.00010161,
        "meta_mean_motion_dot": 4.53e-06,
        "meta_mean_motion_ddot": 0,
        "tle_line1": "1 25994U 99068A   25358.79460049  .00000453  00000+0  10161-3 0  9996",
        "tle_line2": "2 25994  97.9732  50.0357 0003436  70.5699  21.9478 14.60914783384144"
      },
      "geometry": {
        "type": "Point",
        "coordinates": [
          -140.19353273272625,
          -52.656352562219446
        ]
      }
    },
    {
      "type": "Feature",
      "properties": {
        "norad_id": 27004,
        "name": "MAROC-TUBSAT",
        "group": "resource",
        "lat": 44.74815924732059,
        "lon": -2.3177121147609734,
        "alt_km": 995.4210878935146,
        "timestamp": "2025-12-25T03:55:55.962657+00:00",
        "meta_object_name": "MAROC-TUBSAT",
        "meta_object_id": "2001-056D",
        "meta_epoch": "2025-12-24T16:49:19.722144",
        "meta_mean_motion": 13.70253456,
        "meta_eccentricity": 0.0019266,
        "meta_inclination": 99.7916,
        "meta_ra_of_asc_node": 167.3555,
        "meta_arg_of_pericenter": 228.421,
        "meta_mean_anomaly": 143.7745,
        "meta_ephemeris_type": 0,
        "meta_classification_type": "U",
        "meta_norad_cat_id": 27004,
        "meta_element_set_no": 999,
        "meta_rev_at_epoch": 20229,
        "meta_bstar": 2.3048e-05,
        "meta_mean_motion_dot": -2.6e-07,
        "meta_mean_motion_ddot": 0,
        "tle_line1": "1 27004U 01056D   25358.70092271 -.00000026  00000+0  23048-4 0  9995",
        "tle_line2": "2 27004  99.7916 167.3555 0019266 228.4210 143.7745 13.70253456202293"
      },
      "geometry": {
        "type": "Point",
        "coordinates": [
          -2.3177121147609734,
          44.74815924732059
        ]
      }
    },
    {
      "type": "Feature",
      "properties": {
        "norad_id": 27424,
        "name": "AQUA",
        "group": "resource",
        "lat": 30.260230262945115,
        "lon": 145.19500984717442,
        "alt_km": 685.0722513346782,
        "timestamp": "2025-12-25T03:55:55.962669+00:00",
        "meta_object_name": "AQUA",
        "meta_object_id": "2002-022A",
        "meta_epoch": "2025-12-24T19:18:33.413760",
        "meta_mean_motion": 14.61757572,
        "meta_eccentricity": 0.0001809,
        "meta_inclination": 98.4055,
        "meta_ra_of_asc_node": 319.881,
        "meta_arg_of_pericenter": 102.1365,
        "meta_mean_anomaly": 317.5474,
        "meta_ephemeris_type": 0,
        "meta_classification_type": "U",
        "meta_norad_cat_id": 27424,
        "meta_element_set_no": 999,
        "meta_rev_at_epoch": 25779,
        "meta_bstar": 0.00019561,
        "meta_mean_motion_dot": 9.26e-06,
        "meta_mean_motion_ddot": 0,
        "tle_line1": "1 27424U 02022A   25358.80455340  .00000926  00000+0  19561-3 0  9998",
        "tle_line2": "2 27424  98.4055 319.8810 0001809 102.1365 317.5474 14.61757572257794"
      },
      "geometry": {
        "type": "Point",
        "coordinates": [
          145.19500984717442,
          30.260230262945115
        ]
      }
    }
  ]
}